H1 CPF  1  DGF 2022 08 28 11  7401 larets     NONE      
H2   304206 5557    27944 2022 08 28 00 00 00 2022 09 04 00 00 00    30 1 1  0 0 0
H5  0.0650
H9
10 0 59823  18000.000000  0       5062107.889      -4822266.750        951490.398
10 0 59823  18030.000000  0       5004374.917      -4833246.016       1172159.276
10 0 59823  18060.000000  0       4941512.118      -4839042.366       1391626.396
10 0 59823  18090.000000  0       4873605.600      -4839627.044       1609666.586
10 0 59823  18120.000000  0       4800746.803      -4834977.054       1826056.106
10 0 59823  18150.000000  0       4723032.376      -4825075.205       2040572.883
10 0 59823  18180.000000  0       4640564.052      -4809910.152       2252996.754
10 0 59823  18210.000000  0       4553448.518      -4789476.432       2463109.693
10 0 59823  18240.000000  0       4461797.276      -4763774.486       2670696.048
10 0 59823  18270.000000  0       4365726.500      -4732810.684       2875542.768
10 0 59823  18300.000000  0       4265356.890      -4696597.333       3077439.631
10 0 59823  18330.000000  0       4160813.513      -4655152.686       3276179.465
10 0 59823  18360.000000  0       4052225.650      -4608500.937       3471558.370
10 0 59823  18390.000000  0       3939726.627      -4556672.214       3663375.928
10 0 59823  18420.000000  0       3823453.653      -4499702.559       3851435.421
10 0 59823  18450.000000  0       3703547.642      -4437633.904       4035544.030
10 0 59823  18480.000000  0       3580153.044      -4370514.042       4215513.042
10 0 59823  18510.000000  0       3453417.664      -4298396.584       4391158.042
10 0 59823  18540.000000  0       3323492.481      -4221340.917       4562299.110
10 0 59823  18570.000000  0       3190531.462      -4139412.146       4728761.000
10 0 59823  18600.000000  0       3054691.377      -4052681.041       4890373.322
10 0 59823  18630.000000  0       2916131.607      -3961223.972       5046970.717
10 0 59823  18660.000000  0       2775013.958      -3865122.838       5198393.026
10 0 59823  18690.000000  0       2631502.466      -3764464.988       5344485.457
10 0 59823  18720.000000  0       2485763.195      -3659343.134       5485098.746
10 0 59823  18750.000000  0       2337964.047      -3549855.259       5620089.300
10 0 59823  18780.000000  0       2188274.554      -3436104.521       5749319.349
10 0 59823  18810.000000  0       2036865.686      -3318199.142       5872657.075
10 0 59823  18840.000000  0       1883909.647      -3196252.309       5989976.745
10 0 59823  18870.000000  0       1729579.680      -3070382.051       6101158.831
10 0 59823  18900.000000  0       1574049.865      -2940711.129       6206090.132
10 0 59823  18930.000000  0       1417494.921      -2807366.902       6304663.886
10 0 59823  18960.000000  0       1260090.004      -2670481.205       6396779.870
10 0 59823  18990.000000  0       1102010.509      -2530190.206       6482344.501
10 0 59823  19020.000000  0        943431.871      -2386634.270       6561270.926
10 0 59823  19050.000000  0        784529.366      -2239957.812       6633479.098
10 0 59823  19080.000000  0        625477.919      -2090309.148       6698895.856
10 0 59823  19110.000000  0        466451.911      -1937840.344       6757454.993
10 0 59823  19140.000000  0        307624.984      -1782707.057       6809097.318
10 0 59823  19170.000000  0        149169.858      -1625068.373       6853770.722
10 0 59823  19200.000000  0         -8741.871      -1465086.636       6891430.217
10 0 59823  19230.000000  0       -165939.904      -1302927.278       6922037.979
10 0 59823  19260.000000  0       -322255.435      -1138758.646       6945563.382
10 0 59823  19290.000000  0       -477521.319       -972751.829       6961983.024
10 0 59823  19320.000000  0       -631572.264       -805080.471       6971280.748
10 0 59823  19350.000000  0       -784244.998       -635920.595       6973447.662
10 0 59823  19380.000000  0       -935378.451       -465450.410       6968482.135
10 0 59823  19410.000000  0      -1084813.919       -293850.122       6956389.803
10 0 59823  19440.000000  0      -1232395.238       -121301.746       6937183.557
10 0 59823  19470.000000  0      -1377968.939         52011.090       6910883.532
10 0 59823  19500.000000  0      -1521384.412        225903.345       6877517.079
10 0 59823  19530.000000  0      -1662494.064        400188.759       6837118.745
10 0 59823  19560.000000  0      -1801153.467        574680.057       6789730.229
10 0 59823  19590.000000  0      -1937221.512        749189.146       6735400.343
10 0 59823  19620.000000  0      -2070560.550        923527.326       6674184.963
10 0 59823  19650.000000  0      -2201036.533       1097505.486       6606146.970
10 0 59823  19680.000000  0      -2328519.151       1270934.318       6531356.188
10 0 59823  19710.000000  0      -2452881.960       1443624.517       6449889.315
10 0 59823  19740.000000  0      -2574002.509       1615386.995       6361829.844
10 0 59823  19770.000000  0      -2691762.464       1786033.082       6267267.984
10 0 59823  19800.000000  0      -2806047.725       1955374.741       6166300.571
10 0 59823  19830.000000  0      -2916748.535       2123224.773       6059030.971
10 0 59823  19860.000000  0      -3023759.596       2289397.031       5945568.977
10 0 59823  19890.000000  0      -3126980.162       2453706.626       5826030.696
10 0 59823  19920.000000  0      -3226314.143       2615970.136       5700538.438
10 0 59823  19950.000000  0      -3321670.194       2776005.811       5569220.586
10 0 59823  19980.000000  0      -3412961.801       2933633.780       5432211.472
10 0 59823  20010.000000  0      -3500107.362       3088676.254       5289651.239
10 0 59823  20040.000000  0      -3583030.263       3240957.731       5141685.701
10 0 59823  20070.000000  0      -3661658.944       3390305.198       4988466.197
10 0 59823  20100.000000  0      -3735926.968       3536548.329       4830149.438
10 0 59823  20130.000000  0      -3805773.071       3679519.689       4666897.347
10 0 59823  20160.000000  0      -3871141.221       3819054.921       4498876.893
10 0 59823  20190.000000  0      -3931980.655       3954992.942       4326259.920
10 0 59823  20220.000000  0      -3988245.923       4087176.137       4149222.976
10 0 59823  20250.000000  0      -4039896.916       4215450.536       3967947.127
10 0 59823  20280.000000  0      -4086898.899       4339666.008       3782617.775
10 0 59823  20310.000000  0      -4129222.528       4459676.435       3593424.466
10 0 59823  20340.000000  0      -4166843.862       4575339.885       3400560.688
10 0 59823  20370.000000  0      -4199744.371       4686518.789       3204223.672
10 0 59823  20400.000000  0      -4227910.932       4793080.098       3004614.188
10 0 59823  20430.000000  0      -4251335.826       4894895.447       2801936.338
10 0 59823  20460.000000  0      -4270016.724       4991841.315       2596397.342
10 0 59823  20490.000000  0      -4283956.668       5083799.169       2388207.323
10 0 59823  20520.000000  0      -4293164.045       5170655.616       2177579.088
10 0 59823  20550.000000  0      -4297652.557       5252302.535       1964727.907
10 0 59823  20580.000000  0      -4297441.184       5328637.216       1749871.288
10 0 59823  20610.000000  0      -4292554.138       5399562.487       1533228.752
10 0 59823  20640.000000  0      -4283020.817       5464986.832       1315021.604
10 0 59823  20670.000000  0      -4268875.748       5524824.514       1095472.702
10 0 59823  20700.000000  0      -4250158.525       5578995.681        874806.224
10 0 59823  20730.000000  0      -4226913.745       5627426.468        653247.432
10 0 59823  20760.000000  0      -4199190.931       5670049.100        431022.437
10 0 59823  20790.000000  0      -4167044.455       5706801.974        208357.957
10 0 59823  20820.000000  0      -4130533.449       5737629.745        -14518.919
10 0 59823  20850.000000  0      -4089721.713       5762483.397       -237380.971
10 0 59823  20880.000000  0      -4044677.615       5781320.309       -460001.089
10 0 59823  20910.000000  0      -3995473.993       5794104.311       -682152.502
10 0 59823  20940.000000  0      -3942188.054       5800805.737       -903609.022
10 0 59823  20970.000000  0      -3884901.255       5801401.464      -1124145.278
10 0 59823  21000.000000  0      -3823699.190       5795874.951      -1343536.953
10 0 59823  21030.000000  0      -3758671.463       5784216.260      -1561561.011
10 0 59823  21060.000000  0      -3689911.559       5766422.081      -1777995.927
10 0 59823  21090.000000  0      -3617516.722       5742495.743      -1992621.910
10 0 59823  21120.000000  0      -3541587.815       5712447.225      -2205221.133
10 0 59823  21150.000000  0      -3462229.186       5676293.151      -2415577.955
10 0 59823  21180.000000  0      -3379548.528       5634056.773      -2623479.139
10 0 59823  21210.000000  0      -3293656.733       5585767.961      -2828714.067
10 0 59823  21240.000000  0      -3204667.749       5531463.169      -3031074.955
10 0 59823  21270.000000  0      -3112698.432       5471185.405      -3230357.056
10 0 59823  21300.000000  0      -3017868.391       5404984.190      -3426358.870
10 0 59823  21330.000000  0      -2920299.840       5332915.513      -3618882.338
10 0 59823  21360.000000  0      -2820117.435       5255041.772      -3807733.045
10 0 59823  21390.000000  0      -2717448.119       5171431.718      -3992720.406
10 0 59823  21420.000000  0      -2612420.964       5082160.381      -4173657.853
10 0 59823  21450.000000  0      -2505167.006       4987308.997      -4350363.018
10 0 59823  21480.000000  0      -2395819.084       4886964.926      -4522657.904
10 0 59823  21510.000000  0      -2284511.684       4781221.562      -4690369.054
10 0 59823  21540.000000  0      -2171380.769       4670178.252      -4853327.721
10 0 59823  21570.000000  0      -2056563.623       4553940.186      -5011370.025
99
